ONEWEB-0271             
1 48989U 21060Y   24223.40587667  .00000115  00000+0  26672-3 0  9995
2 48989  87.9143   3.3116 0001419  91.4382 268.6912 13.16593041150742
ONEWEB-0272             
1 48990U 21060Z   24223.35205774  .00000055  00000+0  11042-3 0  9995
2 48990  87.9144   3.3515 0001543  92.8861 267.2446 13.16595229150683
ONEWEB-0273             
1 48991U 21060AA  24223.45020577  .00000054  00000+0  10816-3 0  9990
2 48991  87.9144   3.3186 0001624 100.3676 259.7638 13.16592323150677
ONEWEB-0274             
1 48992U 21060AB  24223.47554785  .00000047  00000+0  88826-4 0  9995
2 48992  87.9151   3.3308 0001798  79.1238 281.0095 13.16593741150716
ONEWEB-0275             
1 48993U 21060AC  24223.46445881  .00000172  00000+0  41571-3 0  9995
2 48993  87.9144   3.3116 0001585  97.9791 262.1519 13.16592897150646
ONEWEB-0276             
1 48994U 21060AD  24223.42171656  .00000008  00000+0 -13656-4 0  9991
2 48994  87.9141   3.3160 0001511 100.6012 259.5289 13.16592807150656
ONEWEB-0277             
1 48995U 21060AE  24223.43437657 -.00000005  00000+0 -46214-4 0  9993
2 48995  87.9143   3.3513 0001257  92.8112 267.3162 13.16592568150641
ONEWEB-0278             
1 48996U 21060AF  24223.42487635 -.00000041  00000+0 -14145-3 0  9991
2 48996  87.9142   3.3121 0001943 105.5428 254.5917 13.16592593150778
ONEWEB-0279             
1 48997U 21060AG  24223.43280138  .00000080  00000+0  17463-3 0  9999
2 48997  87.9141   3.3082 0001378  91.0046 269.1243 13.16593722150703
ONEWEB-0280             
1 48998U 21060AH  24223.44704848  .00000006  00000+0 -18482-4 0  9992
2 48998  87.9143   3.3071 0001656 103.1090 257.0226 13.16593074150647
ONEWEB-0281             
1 48999U 21060AJ  24223.45337960  .00000110  00000+0  25406-3 0  9999
2 48999  87.9142   3.3076 0001871  90.4279 269.7067 13.16595180150719
ONEWEB-0282             
1 49000U 21060AK  24223.40745838  .00000075  00000+0  16363-3 0  9997
2 49000  87.9142   3.3333 0001487 101.5920 258.5378 13.16593159150680
ONEWEB-0283             
1 49001U 21060AL  24223.39638481  .00000082  00000+0  18072-3 0  9998
2 49001  87.9142   3.3413 0001530  92.0572 268.0734 13.16594567150693
ONEWEB-0284             
1 49002U 21060AM  24223.46604085  .00000056  00000+0  11225-3 0  9994
2 49002  87.9134   3.3081 0001624 102.9436 257.1876 13.16593209150687
ONEWEB-0285             
1 49075U 21075A   24223.75146951 -.00000257  00000+0 -74847-3 0  9999
2 49075  87.8939 125.1853 0001851  78.5035 281.6302 13.12441429147598
ONEWEB-0286             
1 49076U 21075B   24223.72293059  .00000474  00000+0  12809-2 0  9997
2 49076  87.8935 125.1921 0002192  78.8267 281.3108 13.12446448146945
ONEWEB-0287             
1 49077U 21075C   24223.79079191  .00000092  00000+0  20395-3 0  9990
2 49077  87.9188 140.3664 0002057  84.7224 275.4142 13.17649445145655
ONEWEB-0288             
1 49078U 21075D   24223.78541113  .00000426  00000+0  11479-2 0  9991
2 49078  87.8935 125.1833 0001928  80.9310 279.2037 13.12443176147581
ONEWEB-0289             
1 49079U 21075E   24223.81987563  .00000058  00000+0  11543-3 0  9993
2 49079  87.9189 140.3891 0001851  75.2220 284.9117 13.17649344146232
ONEWEB-0290             
1 49080U 21075F   24223.19460644  .00000069  00000+0  14352-3 0  9995
2 49080  87.9188 140.4731 0001899  90.9919 269.1430 13.17650592145574
ONEWEB-0291             
1 49081U 21075G   24223.33035092  .00000060  00000+0  12138-3 0  9998
2 49081  87.9185 140.4644 0002026  84.2775 275.8587 13.17645976144604
ONEWEB-0293             
1 49082U 21075H   24223.28024246  .00000098  00000+0  21900-3 0  9990
2 49082  87.9187 140.4909 0001900  85.6593 274.4755 13.17650015144628
ONEWEB-0294             
1 49083U 21075J   24223.79189979  .00000930  00000+0  25498-2 0  9992
2 49083  87.8936 125.1812 0002520 100.3343 259.8070 13.12440133146970
ONEWEB-0295             
1 49084U 21075K   24223.28185632  .00000108  00000+0  24569-3 0  9995
2 49084  87.9188 140.4689 0002256  86.5518 273.5872 13.17648163144584
ONEWEB-0296             
1 49085U 21075L   24223.16252874  .00000083  00000+0  19515-3 0  9993
2 49085  87.8937 125.3081 0002265  95.4126 264.7261 13.12444047145909
ONEWEB-0297             
1 49086U 21075M   24223.72700827  .00000428  00000+0  11551-2 0  9996
2 49086  87.8946 125.2068 0001946  76.1904 283.9441 13.12443764147572
ONEWEB-0298             
1 49087U 21075N   24223.28508080 -.00000219  00000+0 -59776-3 0  9997
2 49087  87.9188 140.4865 0002145  76.9449 283.1922 13.17648250144610
ONEWEB-0299             
1 49088U 21075P   24223.28670461  .00000063  00000+0  12941-3 0  9999
2 49088  87.9184 140.4532 0002268  79.8017 280.3370 13.17650510144592
ONEWEB-0300             
1 49089U 21075Q   24223.79514261  .00000563  00000+0  15302-2 0  9999
2 49089  87.8935 125.1781 0001932  65.2164 294.9165 13.12442273147609
ONEWEB-0301             
1 49090U 21075R   24223.77891694  .00000147  00000+0  37363-3 0  9997
2 49090  87.8939 125.1848 0001901  67.2244 292.9086 13.12443964146962
ONEWEB-0302             
1 49091U 21075S   24223.15605635 -.00000151  00000+0 -45635-3 0  9996
2 49091  87.8940 125.3070 0001904  84.5198 275.6147 13.12445195145870
ONEWEB-0304             
1 49092U 21075T   24223.79241515  .00000063  00000+0  12830-3 0  9991
2 49092  87.9188 140.3705 0002094  83.7926 276.3444 13.17649014145610
ONEWEB-0305             
1 49093U 21075U   24223.32871032  .00000010  00000+0 -73584-5 0  9992
2 49093  87.9186 140.4480 0002431  82.2670 277.8737 13.17651654144607
ONEWEB-0308             
1 49094U 21075V   24223.75944557 -.00000374  00000+0 -10753-2 0  9993
2 49094  87.8937 125.1864 0001851  74.1686 285.9646 13.12443605146969
ONEWEB-0309             
1 49095U 21075W   24223.18167853  .00000084  00000+0  18221-3 0  9992
2 49095  87.9190 140.4834 0001781  94.2096 265.9239 13.17648784144558
ONEWEB-0310             
1 49096U 21075X   24223.77404457 -.00000020  00000+0 -90291-4 0  9992
2 49096  87.8946 125.1960 0001790  80.5096 279.6234 13.12445293147594
ONEWEB-0311             
1 49097U 21075Y   24223.79563516  .00000025  00000+0  31114-4 0  9999
2 49097  87.9190 140.3629 0002458  80.0648 280.0761 13.17650654145681
ONEWEB-0312             
1 49098U 21075Z   24223.27862544  .00000066  00000+0  13763-3 0  9990
2 49098  87.9187 140.4970 0002251  89.4888 270.6501 13.17650918144597
ONEWEB-0313             
1 49099U 21075AA  24223.78755011  .00000064  00000+0  13229-3 0  9992
2 49099  87.9189 140.3987 0002155  82.9200 277.2177 13.17651974145659
ONEWEB-0314             
1 49100U 21075AB  24223.32547049  .00000024  00000+0  29833-4 0  9990
2 49100  87.9187 140.4460 0002297  86.7142 273.4252 13.17651718144568
ONEWEB-0315             
1 49101U 21075AC  24223.74808873 -.00000220  00000+0 -64717-3 0  9991
2 49101  87.8934 125.1815 0001916  73.3680 286.7659 13.12440935147572
ONEWEB-0316             
1 49102U 21075AD  24223.70689309  .00000083  00000+0  17865-3 0  9996
2 49102  87.9125 109.9396 0002030  78.3996 281.7363 13.18687446149196
ONEWEB-0317             
1 49103U 21075AE  24223.28417627 -.00000146  00000+0 -44083-3 0  9996
2 49103  87.8938 125.2840 0001431  72.2197 287.9088 13.12440616146530
ONEWEB-0318             
1 49104U 21075AF  24223.62785116  .00000062  00000+0  12495-3 0  9993
2 49104  87.9121 109.9474 0002137  77.9357 282.2015 13.18687611148132
ONEWEB-0319             
1 49105U 21075AG  24223.18975336  .00000082  00000+0  17776-3 0  9999
2 49105  87.9189 140.5084 0002518  81.2257 278.9160 13.17642856144584
ONEWEB-0323             
1 49106U 21075AH  24223.19821048  .00000208  00000+0  54148-3 0  9995
2 49106  87.8938 125.2881 0002075  79.3073 280.8289 13.12440333145882
ONEWEB-0329             
1 49107U 21075AJ  24223.80533299  .00000061  00000+0  12302-3 0  9995
2 49107  87.9188 140.3905 0002137  81.5622 278.5752 13.17648803145639
ONEWEB-0330             
1 49108U 21075AK  24223.27538812 -.00000271  00000+0 -73029-3 0  9991
2 49108  87.9189 140.4963 0002067  84.1819 275.9548 13.17648109144615
ONEWEB-0292             
1 49186U 21083A   24223.62139633  .00000155  00000+0  38844-3 0  9998
2 49186  87.8892  94.7148 0001926  77.2119 282.9225 13.13478553142243
ONEWEB-0303             
1 49187U 21083B   24223.62469071  .00000048  00000+0  88652-4 0  9995
2 49187  87.9121 109.9482 0002074  76.9865 283.1498 13.18688011140946
ONEWEB-0306             
1 49188U 21083C   24223.61521202  .00000057  00000+0  11200-3 0  9994
2 49188  87.9122 109.9369 0001696  80.1913 279.9410 13.18686366140984
ONEWEB-0307             
1 49189U 21083D   24223.61582770  .00000008  00000+0 -11867-4 0  9999
2 49189  87.8893  94.7165 0001571  90.6304 269.5006 13.13469589142244
ONEWEB-0320             
1 49190U 21083E   24223.62152992  .00000066  00000+0  13376-3 0  9990
2 49190  87.9123 109.9606 0001833  78.3782 281.7556 13.18688197140940
ONEWEB-0321             
1 49191U 21083F   24223.52610278  .00000101  00000+0  21677-3 0  9999
2 49191  87.9184  48.8449 0001534  90.1348 269.9961 13.20773853147641
ONEWEB-0322             
1 49192U 21083G   24223.61185476 -.00000264  00000+0 -75697-3 0  9990
2 49192  87.8894  94.7064 0001310  83.4355 276.6923 13.13469940142231
ONEWEB-0324             
1 49193U 21083H   24223.75905241  .00000139  00000+0  31912-3 0  9997
2 49193  87.9122 109.9147 0001979  85.5381 274.5977 13.18688706142268
ONEWEB-0325             
1 49194U 21083J   24223.61204986  .00000037  00000+0  60196-4 0  9995
2 49194  87.9124 109.9587 0001818  76.9052 283.2283 13.18686633140970
ONEWEB-0326             
1 49195U 21083K   24223.62627383  .00000088  00000+0  19056-3 0  9991
2 49195  87.9121 109.9532 0002395  80.3699 279.7704 13.18687721140961
ONEWEB-0327             
1 49196U 21083L   24223.60021291  .00000021  00000+0  19582-4 0  9998
2 49196  87.9122 109.9712 0002231  75.4382 284.6997 13.18689214140986
